[{"OBJECT_NAME":"DONGPO 03","OBJECT_ID":"2022-098G","EPOCH":"2026-03-09T23:33:34.890048","MEAN_MOTION":15.70958192,"ECCENTRICITY":0.00010558,"INCLINATION":97.5452,"RA_OF_ASC_NODE":197.1326,"ARG_OF_PERICENTER":261.4023,"MEAN_ANOMALY":98.7119,"EPHEMERIS_TYPE":0,"CLASSIFICATION_TYPE":"U","NORAD_CAT_ID":53450,"ELEMENT_SET_NO":999,"REV_AT_EPOCH":19946,"BSTAR":0.0010143925,"MEAN_MOTION_DOT":0.00128253,"MEAN_MOTION_DDOT":0},{"OBJECT_NAME":"STARLINK-11262 [DTC]","OBJECT_ID":"2024-213B","EPOCH":"2026-03-09T04:40:49.080864","MEAN_MOTION":15.69681129,"ECCENTRICITY":0.00015575,"INCLINATION":53.158,"RA_OF_ASC_NODE":43.9857,"ARG_OF_PERICENTER":70.8478,"MEAN_ANOMALY":289.2708,"EPHEMERIS_TYPE":0,"CLASSIFICATION_TYPE":"U","NORAD_CAT_ID":62009,"ELEMENT_SET_NO":999,"REV_AT_EPOCH":7483,"BSTAR":0.0024809107,"MEAN_MOTION_DOT":0.00311143,"MEAN_MOTION_DDOT":0}]
